[
    {
        "Altitude(m)": 607911.0229521453,
        "Argument of Periapsis(deg)": 0.0,
        "Eccentricity": 0.0,
        "Inclination(deg)": 60.0,
        "Latitude(deg)": -14.29302267947416,
        "Longitude(deg)": -51.557333793326855,
        "Mean Anomaly(deg)": -163.6364,
        "RAAN(deg)": 220.00000000000003,
        "Satellite Name": "Test1 980",
        "Satellite Number": 980,
        "Semi-Major Axis(m)": 6980739.136638005,
        "Time(s)": 0
    },
    {
        "Altitude(m)": 608060.2569510353,
        "Argument of Periapsis(deg)": 0.00010418945913296404,
        "Eccentricity": 0.0,
        "Inclination(deg)": 60.0,
        "Latitude(deg)": -14.82668370231582,
        "Longitude(deg)": -51.268723520808656,
        "Mean Anomaly(deg)": -163.01629385453822,
        "RAAN(deg)": 219.99957995086027,
        "Satellite Name": "Test1 980",
        "Satellite Number": 980,
        "Semi-Major Axis(m)": 6980739.136638005,
        "Time(s)": 10
    }
]